[{"OBJECT_NAME":"LEMUR-2-CALLUM-K-J","OBJECT_ID":"2026-004B","EPOCH":"2026-03-09T22:32:55.398048","MEAN_MOTION":14.87314253,"ECCENTRICITY":0.00103405,"INCLINATION":97.8064,"RA_OF_ASC_NODE":69.1156,"ARG_OF_PERICENTER":95.8442,"MEAN_ANOMALY":264.3953,"EPHEMERIS_TYPE":0,"CLASSIFICATION_TYPE":"U","NORAD_CAT_ID":67364,"ELEMENT_SET_NO":999,"REV_AT_EPOCH":853,"BSTAR":0.00054257986,"MEAN_MOTION_DOT":4.848e-5,"MEAN_MOTION_DDOT":0},{"OBJECT_NAME":"CZ-6A DEB","OBJECT_ID":"2022-151QZ","EPOCH":"2026-03-08T03:36:01.443744","MEAN_MOTION":14.64370174,"ECCENTRICITY":0.00996478,"INCLINATION":98.7621,"RA_OF_ASC_NODE":146.9911,"ARG_OF_PERICENTER":263.2541,"MEAN_ANOMALY":95.7312,"EPHEMERIS_TYPE":0,"CLASSIFICATION_TYPE":"U","NORAD_CAT_ID":54912,"ELEMENT_SET_NO":999,"REV_AT_EPOCH":17184,"BSTAR":0.0026821228,"MEAN_MOTION_DOT":0.00015209,"MEAN_MOTION_DDOT":0}]
